COMMENT,ORIGINATOR,NORAD_CAT_ID,OBJECT_NAME,OBJECT_TYPE,CLASSIFICATION_TYPE,INTLDES,EPOCH,EPOCH_MICROSECONDS,MEAN_MOTION,ECCENTRICITY,INCLINATION,RA_OF_ASC_NODE,ARG_OF_PERICENTER,MEAN_ANOMALY,EPHEMERIS_TYPE,ELEMENT_SET_NO,REV_AT_EPOCH,BSTAR,MEAN_MOTION_DOT,MEAN_MOTION_DDOT,FILE,TLE_LINE0,TLE_LINE1,TLE_LINE2,OBJECT_ID,OBJECT_NUMBER,SEMIMAJOR_AXIS,PERIOD,APOGEE,PERIGEE,DECAYED
GENERATED VIA SPACETRACK.ORG API,18 SPCS,26998,TIMED,PAYLOAD,U,01055B,3/4/24 20:29,217344,14.9085414,0.0001862,74.0693,109.8833,246.0818,114.0169,0,999,20641,0.00015475,0.00001487,0,4208226,0 TIMED,1 26998U 01055B   24064.85413446  .00001487  00000-0  15475-3 0  9991,2 26998  74.0693 109.8833 0001862 246.0818 114.0169 14.90854140206414,2001-055B,26998,6973.408,96.589,596.571,593.974,0
GENERATED VIA SPACETRACK.ORG API,18 SPCS,26998,TIMED,PAYLOAD,U,01055B,3/4/24 20:29,217344,14.9085414,0.0001862,74.0693,109.8833,246.0818,114.0169,0,999,20627,0.00015475,0.00001487,0,4208633,0 TIMED,1 26998U 01055B   24064.85413446  .00001487  00000-0  15475-3 0  9991,2 26998  74.0693 109.8833 0001862 246.0818 114.0169 14.90854140206278,2001-055B,26998,6973.408,96.589,596.571,593.974,0
GENERATED VIA SPACETRACK.ORG API,18 SPCS,26998,TIMED,PAYLOAD,U,01055B,3/5/24 12:36,14592,14.90857525,0.0001854,74.0691,108.5417,245.8724,114.2264,0,999,20637,0.00017371,0.00001674,0,4209183,0 TIMED,1 26998U 01055B   24065.52517378  .00001674  00000-0  17371-3 0  9990,2 26998  74.0691 108.5417 0001854 245.8724 114.2264 14.90857525206373,2001-055B,26998,6973.397,96.589,596.555,593.97,0
GENERATED VIA SPACETRACK.ORG API,18 SPCS,26998,TIMED,PAYLOAD,U,01055B,3/6/24 3:05,964896,14.90860493,0.0001838,74.0692,107.3343,245.237,114.8621,0,999,20660,0.00018814,0.00001816,0,4210411,0 TIMED,1 26998U 01055B   24066.12910839  .00001816  00000-0  18814-3 0  9997,2 26998  74.0692 107.3343 0001838 245.2370 114.8621 14.90860493206609,2001-055B,26998,6973.388,96.589,596.535,593.971,0
GENERATED VIA SPACETRACK.ORG API,18 SPCS,26998,TIMED,PAYLOAD,U,01055B,3/6/24 12:45,549760,14.90862015,0.000183,74.0692,106.5293,245.1843,114.9148,0,999,20652,0.00018884,0.00001823,0,4211361,0 TIMED,1 26998U 01055B   24066.53173090  .00001823  00000-0  18884-3 0  9997,2 26998  74.0692 106.5293 0001830 245.1843 114.9148 14.90862015206528,2001-055B,26998,6973.383,96.588,596.524,593.972,0
GENERATED VIA SPACETRACK.ORG API,18 SPCS,26998,TIMED,PAYLOAD,U,01055B,3/7/24 3:15,397248,14.90863624,0.0001819,74.0691,105.3217,244.6005,115.4989,0,999,20675,0.00017849,0.00001721,0,4212207,0 TIMED,1 26998U 01055B   24067.13566432  .00001721  00000-0  17849-3 0  9997,2 26998  74.0691 105.3217 0001819 244.6005 115.4989 14.90863624206752,2001-055B,26998,6973.378,96.588,596.512,593.975,0
GENERATED VIA SPACETRACK.ORG API,18 SPCS,26998,TIMED,PAYLOAD,U,01055B,3/7/24 12:55,912128,14.90865603,0.0001816,74.0691,104.5167,244.5067,115.5927,0,999,20667,0.00018912,0.00001826,0,4212721,0 TIMED,1 26998U 01055B   24067.53828602  .00001826  00000-0  18912-3 0  9999,2 26998  74.0691 104.5167 0001816 244.5067 115.5927 14.90865603206674,2001-055B,26998,6973.372,96.588,596.504,593.971,0
GENERATED VIA SPACETRACK.ORG API,18 SPCS,26998,TIMED,PAYLOAD,U,01055B,3/8/24 3:24,599776,14.90867925,0.0001805,74.069,103.3092,244.1329,115.9667,0,999,20690,0.00018985,0.00001834,0,4213743,0 TIMED,1 26998U 01055B   24068.14221759  .00001834  00000-0  18985-3 0  9996,2 26998  74.0690 103.3092 0001805 244.1329 115.9667 14.90867925206902,2001-055B,26998,6973.365,96.588,596.489,593.971,0
GENERATED VIA SPACETRACK.ORG API,18 SPCS,26998,TIMED,PAYLOAD,U,01055B,3/8/24 11:27,289312,14.90869192,0.0001798,74.069,102.6383,244.0255,116.0742,0,999,20681,0.00019082,0.00001843,0,4214683,0 TIMED,1 26998U 01055B   24068.47773483  .00001843  00000-0  19082-3 0  9997,2 26998  74.0690 102.6383 0001798 244.0255 116.0742 14.90869192206819,2001-055B,26998,6973.361,96.588,596.48,593.972,0
GENERATED VIA SPACETRACK.ORG API,18 SPCS,26998,TIMED,PAYLOAD,U,01055B,3/8/24 19:31,977984,14.90869979,0.0001783,74.069,101.9674,243.5164,116.5835,0,999,20686,0.00018373,0.00001773,0,4215142,0 TIMED,1 26998U 01055B   24068.81325206  .00001773  00000-0  18373-3 0  9995,2 26998  74.0690 101.9674 0001783 243.5164 116.5835 14.90869979206867,2001-055B,26998,6973.359,96.588,596.467,593.98,0
GENERATED VIA SPACETRACK.ORG API,18 SPCS,26998,TIMED,PAYLOAD,U,01055B,3/9/24 3:34,627776,14.90870538,0.000178,74.069,101.2966,243.4987,116.6012,0,999,20705,0.00017104,0.00001648,0,4215209,0 TIMED,1 26998U 01055B   24069.14876884  .00001648  00000-0  17104-3 0  9997,2 26998  74.0690 101.2966 0001780 243.4987 116.6012 14.90870538207056,2001-055B,26998,6973.357,96.588,596.463,593.981,0
GENERATED VIA SPACETRACK.ORG API,18 SPCS,26998,TIMED,PAYLOAD,U,01055B,3/9/24 11:37,193760,14.90873092,0.000177,74.069,100.6257,243.528,116.572,0,999,20696,0.00019283,0.00001863,0,4216444,0 TIMED,1 26998U 01055B   24069.48428465  .00001863  00000-0  19283-3 0  9991,2 26998  74.0690 100.6257 0001770 243.5280 116.5720 14.90873092206960,2001-055B,26998,6973.349,96.588,596.448,593.98,0
GENERATED VIA SPACETRACK.ORG API,18 SPCS,26998,TIMED,PAYLOAD,U,01055B,3/9/24 19:40,816768,14.90873154,0.0001757,74.069,99.9548,243.3546,116.7457,0,999,20701,0.00017207,0.00001658,0,4216947,0 TIMED,1 26998U 01055B   24069.81980112  .00001658  00000-0  17207-3 0  9996,2 26998  74.0690  99.9548 0001757 243.3546 116.7457 14.90873154207016,2001-055B,26998,6973.349,96.588,596.439,593.988,0
GENERATED VIA SPACETRACK.ORG API,18 SPCS,26998,TIMED,PAYLOAD,U,01055B,3/10/24 3:43,390528,14.90874259,0.0001751,74.0689,99.284,242.9421,117.1583,0,999,20720,0.00016926,0.00001631,0,4217031,0 TIMED,1 26998U 01055B   24070.15531702  .00001631  00000-0  16926-3 0  9990,2 26998  74.0689  99.2840 0001751 242.9421 117.1583 14.90874259207206,2001-055B,26998,6973.345,96.588,596.431,593.989,0
GENERATED VIA SPACETRACK.ORG API,18 SPCS,26998,TIMED,PAYLOAD,U,01055B,3/10/24 11:46,962560,14.90875063,0.0001744,74.0689,98.6131,243.0297,117.0707,0,999,20711,0.00016302,0.00001569,0,4218257,0 TIMED,1 26998U 01055B   24070.49083290  .00001569  00000-0  16302-3 0  9999,2 26998  74.0689  98.6131 0001744 243.0297 117.0707 14.90875063207118,2001-055B,26998,6973.343,96.588,596.424,593.992,0
GENERATED VIA SPACETRACK.ORG API,18 SPCS,26998,TIMED,PAYLOAD,U,01055B,3/10/24 18:13,793056,14.90875911,0.0001737,74.0689,98.0764,242.861,117.2395,0,999,20715,0.00016096,0.00001549,0,4218864,0 TIMED,1 26998U 01055B   24070.75924529  .00001549  00000-0  16096-3 0  9995,2 26998  74.0689  98.0764 0001737 242.8610 117.2395 14.90875911207153,2001-055B,26998,6973.34,96.588,596.416,593.994,0
GENERATED VIA SPACETRACK.ORG API,18 SPCS,26998,TIMED,PAYLOAD,U,01055B,3/11/24 5:29,716832,14.90877284,0.0001729,74.0689,97.1372,242.5131,117.5875,0,999,20736,0.00015622,0.00001502,0,4218941,0 TIMED,1 26998U 01055B   24071.22896663  .00001502  00000-0  15622-3 0  9998,2 26998  74.0689  97.1372 0001729 242.5131 117.5875 14.90877284207368,2001-055B,26998,6973.336,96.587,596.406,593.995,0
GENERATED VIA SPACETRACK.ORG API,18 SPCS,26998,TIMED,PAYLOAD,U,01055B,3/11/24 11:56,506720,14.90878288,0.0001723,74.0689,96.6006,242.6182,117.4825,0,999,20726,0.00015774,0.00001517,0,4220034,0 TIMED,1 26998U 01055B   24071.49737855  .00001517  00000-0  15774-3 0  9998,2 26998  74.0689  96.6006 0001723 242.6182 117.4825 14.90878288207265,2001-055B,26998,6973.333,96.587,596.399,593.996,0
GENERATED VIA SPACETRACK.ORG API,18 SPCS,26998,TIMED,PAYLOAD,U,01055B,3/12/24 12:05,889312,14.90881528,0.0001707,74.0689,94.5878,242.3268,117.7741,0,999,20755,0.00015775,0.00001517,0,4221155,0 TIMED,1 26998U 01055B   24072.50392233  .00001517  00000-0  15775-3 0  9999,2 26998  74.0689  94.5878 0001707 242.3268 117.7741 14.90881528207556,2001-055B,26998,6973.323,96.587,596.378,593.997,0
GENERATED VIA SPACETRACK.ORG API,18 SPCS,26998,TIMED,PAYLOAD,U,01055B,3/12/24 12:05,889312,14.90881528,0.0001707,74.0689,94.5878,242.3268,117.7741,0,999,20741,0.00015775,0.00001517,0,4222103,0 TIMED,1 26998U 01055B   24072.50392233  .00001517  00000-0  15775-3 0  9999,2 26998  74.0689  94.5878 0001707 242.3268 117.7741 14.90881528207411,2001-055B,26998,6973.323,96.587,596.378,593.997,0
GENERATED VIA SPACETRACK.ORG API,18 SPCS,26998,TIMED,PAYLOAD,U,01055B,3/13/24 12:15,71456,14.90885138,0.000168,74.0688,92.5752,241.4486,118.6527,0,999,20770,0.00016467,0.00001586,0,4222903,0 TIMED,1 26998U 01055B   24073.51046379  .00001586  00000-0  16467-3 0  9993,2 26998  74.0688  92.5752 0001680 241.4486 118.6527 14.90885138207706,2001-055B,26998,6973.311,96.587,596.348,594.005,0
GENERATED VIA SPACETRACK.ORG API,18 SPCS,26998,TIMED,PAYLOAD,U,01055B,3/13/24 12:15,71456,14.90885138,0.000168,74.0688,92.5752,241.4486,118.6527,0,999,20756,0.00016467,0.00001586,0,4223455,0 TIMED,1 26998U 01055B   24073.51046379  .00001586  00000-0  16467-3 0  9993,2 26998  74.0688  92.5752 0001680 241.4486 118.6527 14.90885138207560,2001-055B,26998,6973.311,96.587,596.348,594.005,0
GENERATED VIA SPACETRACK.ORG API,18 SPCS,26998,TIMED,PAYLOAD,U,01055B,3/14/24 4:21,767968,14.90887296,0.000166,74.0688,91.2334,241.1918,118.9097,0,999,20766,0.00016532,0.00001592,0,4225152,0 TIMED,1 26998U 01055B   24074.18149037  .00001592  00000-0  16532-3 0  9992,2 26998  74.0688  91.2334 0001660 241.1918 118.9097 14.90887296207660,2001-055B,26998,6973.305,96.587,596.327,594.012,0
GENERATED VIA SPACETRACK.ORG API,18 SPCS,26998,TIMED,PAYLOAD,U,01055B,3/14/24 10:47,416160,14.90888253,0.0001652,74.0688,90.6967,240.9619,119.1398,0,999,20770,0.00016715,0.0000161,0,4225645,0 TIMED,1 26998U 01055B   24074.44990065  .00001610  00000-0  16715-3 0  9990,2 26998  74.0688  90.6967 0001652 240.9619 119.1398 14.90888253207707,2001-055B,26998,6973.302,96.587,596.319,594.015,0
